STARLINK-37296          
1 68672U 26077L   26112.54303764 -.00057493  00000+0 -38620-3 0  9996
2 68672  97.2837 343.5984 0001564  82.3032 277.8410 15.75247778  1819
