{
  "norad_id": 68672,
  "name": "STARLINK-37296",
  "history": [
    {
      "epoch": "2026-04-22T13:01:58.452096Z",
      "apogee_km": 344.97752343433694,
      "perigee_km": 342.87486206764515,
      "latitude_deg": -7.437350843610294e-05,
      "longitude_deg": -62.49825759731532,
      "height_km": 346.951309497926,
      "semi_major_axis_km": 6722.06319275099,
      "eccentricity": 0.0001564,
      "inclination_deg": 97.2837,
      "raan_deg": 343.5984,
      "arg_perigee_deg": 82.3032,
      "mean_anomaly_deg": 277.841,
      "mean_motion_rev_day": 15.75247778
    }
  ]
}